STARLINK-35687          
1 66524U 25265J   25338.75002315 -.01833501  00000+0 -15088-1 0  9992
2 66524  42.9999 101.2224 0001396 272.7344  17.1351 15.72750678  3714
STARLINK-35975          
1 66525U 25265K   25338.75002315 -.01831921  00000+0 -15075-1 0  9993
2 66525  42.9998 101.2179 0001204 266.0997  25.6848 15.72750749  3715
STARLINK-35932          
1 66526U 25265L   25338.75002315 -.01833395  00000+0 -15087-1 0  9994
2 66526  42.9999 101.2131 0001450 273.0085  20.6944 15.72751241  3602
STARLINK-35935          
1 66527U 25265M   25338.75002315 -.01828613  00000+0 -15047-1 0  9998
2 66527  43.0000 101.2087 0001073 274.1193  21.5013 15.72747158  3712
STARLINK-35928          
1 66528U 25265N   25338.75002315 -.01831498  00000+0 -15071-1 0  9991
2 66528  43.0000 101.2036 0001256 271.1375  26.4001 15.72749415  3718
STARLINK-35933          
1 66529U 25265P   25338.75002315 -.01829925  00000+0 -15057-1 0  9998
2 66529  42.9999 101.1986 0001249 267.2977  32.1571 15.72748594  3716
STARLINK-35961          
1 66530U 25265Q   25338.75002315 -.01823566  00000+0 -15000-1 0  9993
2 66530  42.9999 101.1940 0001420 281.4918  19.8840 15.72741717  3713
STARLINK-35960          
1 66531U 25265R   25338.75002315 -.01825462  00000+0 -15015-1 0  9997
2 66531  42.9999 101.1888 0001581 277.6115  25.6788 15.72744100  3714
STARLINK-35914          
1 66532U 25265S   25338.75002315 -.01827856  00000+0 -15039-1 0  9993
2 66532  42.9998 101.1840 0001373 275.0973  30.1127 15.72745066  3715
STARLINK-35707          
1 66533U 25265T   25338.75002315 -.01826018  00000+0 -15022-1 0  9995
2 66533  42.9999 101.1795 0001411 281.7980  25.3270 15.72744305  3711
STARLINK-35976          
1 66534U 25265U   25338.75002315 -.01824974  00000+0 -15011-1 0  9993
2 66534  43.0002 101.1751 0001602 283.1593  25.8821 15.72744018  3717
STARLINK-35514          
1 66535U 25265V   25338.75002315 -.01825116  00000+0 -15012-1 0  9994
2 66535  43.0002 101.1699 0001556 283.5097  27.4487 15.72744341  3715
