CCSDS_OMM_VERS = 2.0
CREATION_DATE  = 
ORIGINATOR     = 

OBJECT_NAME    = STARLINK-35687
OBJECT_ID      = 2025-265J
CENTER_NAME    = EARTH
REF_FRAME      = TEME
TIME_SYSTEM    = UTC
MEAN_ELEMENT_THEORY = SGP/SGP4

EPOCH          = 2025-12-04T18:00:02.000160
MEAN_MOTION    = 15.72750678
ECCENTRICITY   = .0001396
INCLINATION    = 42.9999
RA_OF_ASC_NODE = 101.2224
ARG_OF_PERICENTER = 272.7344
MEAN_ANOMALY   = 17.1351

EPHEMERIS_TYPE = 0
CLASSIFICATION_TYPE = U
NORAD_CAT_ID   = 66524
ELEMENT_SET_NO = 999
REV_AT_EPOCH   = 371
BSTAR          = -.15088E-1
MEAN_MOTION_DOT = -.1833501E-1
MEAN_MOTION_DDOT = 0

CCSDS_OMM_VERS = 2.0
CREATION_DATE  = 
ORIGINATOR     = 

OBJECT_NAME    = STARLINK-35975
OBJECT_ID      = 2025-265K
CENTER_NAME    = EARTH
REF_FRAME      = TEME
TIME_SYSTEM    = UTC
MEAN_ELEMENT_THEORY = SGP/SGP4

EPOCH          = 2025-12-04T18:00:02.000160
MEAN_MOTION    = 15.72750749
ECCENTRICITY   = .0001204
INCLINATION    = 42.9998
RA_OF_ASC_NODE = 101.2179
ARG_OF_PERICENTER = 266.0997
MEAN_ANOMALY   = 25.6848

EPHEMERIS_TYPE = 0
CLASSIFICATION_TYPE = U
NORAD_CAT_ID   = 66525
ELEMENT_SET_NO = 999
REV_AT_EPOCH   = 371
BSTAR          = -.15075E-1
MEAN_MOTION_DOT = -.1831921E-1
MEAN_MOTION_DDOT = 0

CCSDS_OMM_VERS = 2.0
CREATION_DATE  = 
ORIGINATOR     = 

OBJECT_NAME    = STARLINK-35932
OBJECT_ID      = 2025-265L
CENTER_NAME    = EARTH
REF_FRAME      = TEME
TIME_SYSTEM    = UTC
MEAN_ELEMENT_THEORY = SGP/SGP4

EPOCH          = 2025-12-04T18:00:02.000160
MEAN_MOTION    = 15.72751241
ECCENTRICITY   = .000145
INCLINATION    = 42.9999
RA_OF_ASC_NODE = 101.2131
ARG_OF_PERICENTER = 273.0085
MEAN_ANOMALY   = 20.6944

EPHEMERIS_TYPE = 0
CLASSIFICATION_TYPE = U
NORAD_CAT_ID   = 66526
ELEMENT_SET_NO = 999
REV_AT_EPOCH   = 360
BSTAR          = -.15087E-1
MEAN_MOTION_DOT = -.1833395E-1
MEAN_MOTION_DDOT = 0

CCSDS_OMM_VERS = 2.0
CREATION_DATE  = 
ORIGINATOR     = 

OBJECT_NAME    = STARLINK-35935
OBJECT_ID      = 2025-265M
CENTER_NAME    = EARTH
REF_FRAME      = TEME
TIME_SYSTEM    = UTC
MEAN_ELEMENT_THEORY = SGP/SGP4

EPOCH          = 2025-12-04T18:00:02.000160
MEAN_MOTION    = 15.72747158
ECCENTRICITY   = .0001073
INCLINATION    = 43.0000
RA_OF_ASC_NODE = 101.2087
ARG_OF_PERICENTER = 274.1193
MEAN_ANOMALY   = 21.5013

EPHEMERIS_TYPE = 0
CLASSIFICATION_TYPE = U
NORAD_CAT_ID   = 66527
ELEMENT_SET_NO = 999
REV_AT_EPOCH   = 371
BSTAR          = -.15047E-1
MEAN_MOTION_DOT = -.1828613E-1
MEAN_MOTION_DDOT = 0

CCSDS_OMM_VERS = 2.0
CREATION_DATE  = 
ORIGINATOR     = 

OBJECT_NAME    = STARLINK-35928
OBJECT_ID      = 2025-265N
CENTER_NAME    = EARTH
REF_FRAME      = TEME
TIME_SYSTEM    = UTC
MEAN_ELEMENT_THEORY = SGP/SGP4

EPOCH          = 2025-12-04T18:00:02.000160
MEAN_MOTION    = 15.72749415
ECCENTRICITY   = .0001256
INCLINATION    = 43.0000
RA_OF_ASC_NODE = 101.2036
ARG_OF_PERICENTER = 271.1375
MEAN_ANOMALY   = 26.4001

EPHEMERIS_TYPE = 0
CLASSIFICATION_TYPE = U
NORAD_CAT_ID   = 66528
ELEMENT_SET_NO = 999
REV_AT_EPOCH   = 371
BSTAR          = -.15071E-1
MEAN_MOTION_DOT = -.1831498E-1
MEAN_MOTION_DDOT = 0

CCSDS_OMM_VERS = 2.0
CREATION_DATE  = 
ORIGINATOR     = 

OBJECT_NAME    = STARLINK-35933
OBJECT_ID      = 2025-265P
CENTER_NAME    = EARTH
REF_FRAME      = TEME
TIME_SYSTEM    = UTC
MEAN_ELEMENT_THEORY = SGP/SGP4

EPOCH          = 2025-12-04T18:00:02.000160
MEAN_MOTION    = 15.72748594
ECCENTRICITY   = .0001249
INCLINATION    = 42.9999
RA_OF_ASC_NODE = 101.1986
ARG_OF_PERICENTER = 267.2977
MEAN_ANOMALY   = 32.1571

EPHEMERIS_TYPE = 0
CLASSIFICATION_TYPE = U
NORAD_CAT_ID   = 66529
ELEMENT_SET_NO = 999
REV_AT_EPOCH   = 371
BSTAR          = -.15057E-1
MEAN_MOTION_DOT = -.1829925E-1
MEAN_MOTION_DDOT = 0

CCSDS_OMM_VERS = 2.0
CREATION_DATE  = 
ORIGINATOR     = 

OBJECT_NAME    = STARLINK-35961
OBJECT_ID      = 2025-265Q
CENTER_NAME    = EARTH
REF_FRAME      = TEME
TIME_SYSTEM    = UTC
MEAN_ELEMENT_THEORY = SGP/SGP4

EPOCH          = 2025-12-04T18:00:02.000160
MEAN_MOTION    = 15.72741717
ECCENTRICITY   = .000142
INCLINATION    = 42.9999
RA_OF_ASC_NODE = 101.1940
ARG_OF_PERICENTER = 281.4918
MEAN_ANOMALY   = 19.8840

EPHEMERIS_TYPE = 0
CLASSIFICATION_TYPE = U
NORAD_CAT_ID   = 66530
ELEMENT_SET_NO = 999
REV_AT_EPOCH   = 371
BSTAR          = -.15E-1
MEAN_MOTION_DOT = -.1823566E-1
MEAN_MOTION_DDOT = 0

CCSDS_OMM_VERS = 2.0
CREATION_DATE  = 
ORIGINATOR     = 

OBJECT_NAME    = STARLINK-35960
OBJECT_ID      = 2025-265R
CENTER_NAME    = EARTH
REF_FRAME      = TEME
TIME_SYSTEM    = UTC
MEAN_ELEMENT_THEORY = SGP/SGP4

EPOCH          = 2025-12-04T18:00:02.000160
MEAN_MOTION    = 15.72744100
ECCENTRICITY   = .0001581
INCLINATION    = 42.9999
RA_OF_ASC_NODE = 101.1888
ARG_OF_PERICENTER = 277.6115
MEAN_ANOMALY   = 25.6788

EPHEMERIS_TYPE = 0
CLASSIFICATION_TYPE = U
NORAD_CAT_ID   = 66531
ELEMENT_SET_NO = 999
REV_AT_EPOCH   = 371
BSTAR          = -.15015E-1
MEAN_MOTION_DOT = -.1825462E-1
MEAN_MOTION_DDOT = 0

CCSDS_OMM_VERS = 2.0
CREATION_DATE  = 
ORIGINATOR     = 

OBJECT_NAME    = STARLINK-35914
OBJECT_ID      = 2025-265S
CENTER_NAME    = EARTH
REF_FRAME      = TEME
TIME_SYSTEM    = UTC
MEAN_ELEMENT_THEORY = SGP/SGP4

EPOCH          = 2025-12-04T18:00:02.000160
MEAN_MOTION    = 15.72745066
ECCENTRICITY   = .0001373
INCLINATION    = 42.9998
RA_OF_ASC_NODE = 101.1840
ARG_OF_PERICENTER = 275.0973
MEAN_ANOMALY   = 30.1127

EPHEMERIS_TYPE = 0
CLASSIFICATION_TYPE = U
NORAD_CAT_ID   = 66532
ELEMENT_SET_NO = 999
REV_AT_EPOCH   = 371
BSTAR          = -.15039E-1
MEAN_MOTION_DOT = -.1827856E-1
MEAN_MOTION_DDOT = 0

CCSDS_OMM_VERS = 2.0
CREATION_DATE  = 
ORIGINATOR     = 

OBJECT_NAME    = STARLINK-35707
OBJECT_ID      = 2025-265T
CENTER_NAME    = EARTH
REF_FRAME      = TEME
TIME_SYSTEM    = UTC
MEAN_ELEMENT_THEORY = SGP/SGP4

EPOCH          = 2025-12-04T18:00:02.000160
MEAN_MOTION    = 15.72744305
ECCENTRICITY   = .0001411
INCLINATION    = 42.9999
RA_OF_ASC_NODE = 101.1795
ARG_OF_PERICENTER = 281.7980
MEAN_ANOMALY   = 25.3270

EPHEMERIS_TYPE = 0
CLASSIFICATION_TYPE = U
NORAD_CAT_ID   = 66533
ELEMENT_SET_NO = 999
REV_AT_EPOCH   = 371
BSTAR          = -.15022E-1
MEAN_MOTION_DOT = -.1826018E-1
MEAN_MOTION_DDOT = 0

CCSDS_OMM_VERS = 2.0
CREATION_DATE  = 
ORIGINATOR     = 

OBJECT_NAME    = STARLINK-35976
OBJECT_ID      = 2025-265U
CENTER_NAME    = EARTH
REF_FRAME      = TEME
TIME_SYSTEM    = UTC
MEAN_ELEMENT_THEORY = SGP/SGP4

EPOCH          = 2025-12-04T18:00:02.000160
MEAN_MOTION    = 15.72744018
ECCENTRICITY   = .0001602
INCLINATION    = 43.0002
RA_OF_ASC_NODE = 101.1751
ARG_OF_PERICENTER = 283.1593
MEAN_ANOMALY   = 25.8821

EPHEMERIS_TYPE = 0
CLASSIFICATION_TYPE = U
NORAD_CAT_ID   = 66534
ELEMENT_SET_NO = 999
REV_AT_EPOCH   = 371
BSTAR          = -.15011E-1
MEAN_MOTION_DOT = -.1824974E-1
MEAN_MOTION_DDOT = 0

CCSDS_OMM_VERS = 2.0
CREATION_DATE  = 
ORIGINATOR     = 

OBJECT_NAME    = STARLINK-35514
OBJECT_ID      = 2025-265V
CENTER_NAME    = EARTH
REF_FRAME      = TEME
TIME_SYSTEM    = UTC
MEAN_ELEMENT_THEORY = SGP/SGP4

EPOCH          = 2025-12-04T18:00:02.000160
MEAN_MOTION    = 15.72744341
ECCENTRICITY   = .0001556
INCLINATION    = 43.0002
RA_OF_ASC_NODE = 101.1699
ARG_OF_PERICENTER = 283.5097
MEAN_ANOMALY   = 27.4487

EPHEMERIS_TYPE = 0
CLASSIFICATION_TYPE = U
NORAD_CAT_ID   = 66535
ELEMENT_SET_NO = 999
REV_AT_EPOCH   = 371
BSTAR          = -.15012E-1
MEAN_MOTION_DOT = -.1825116E-1
MEAN_MOTION_DDOT = 0

